{"type":"FeatureCollection","features":[{"type":"Feature","properties":{"name":"云南","fullname":"云南省","code":"530000","pinyin":"yunnan","center":[102.709372,25.046432],"level":1,"filename":"530000"},"geometry":{"type":"Polygon","coordinates":[[[105.54265207492708,23.184271521987522],[105.32550362378862,23.39004751094751],[105.23842253759753,23.26218462984063],[105.08187365421865,23.260441368523367],[104.94885021279521,23.152181283045284],[104.89323902408903,23.17142831105831],[104.87433245162745,23.12343525969126],[104.80911401437402,23.116462214422214],[104.86460203322703,22.950638928712927],[104.73570478188478,22.822349126467127],[104.6004026981777,22.813597243119244],[104.57946382313882,22.84636344053144],[104.3695823933374,22.688865117031117],[104.27172394499394,22.73902835085435],[104.26150084718086,22.8419874988575],[104.11733053404554,22.808936687352688],[104.04361337692337,22.724690915938915],[103.97777909040408,22.503367882169883],[103.64343452397452,22.79459925243725],[103.52962557964558,22.592950167820167],[103.43552381182381,22.698755456749456],[103.4433450975001,22.75091098922099],[103.32331607558608,22.80790496126696],[103.2827931938932,22.67851227941228],[103.18764448231948,22.641939368511366],[103.18277927311928,22.554954186456186],[103.08165682366682,22.50667652099652],[103.07204957511958,22.445306607276606],[102.93077375353376,22.4825198998859],[102.86173705083205,22.60579337874938],[102.60732971910971,22.730703388645388],[102.57044034808536,22.700285257497256],[102.49499881301881,22.77791375125775],[102.38519288891789,22.68071803863004],[102.42048105185106,22.63414805772606],[102.30254591744091,22.527702387088386],[102.26904371737872,22.414425978227978],[102.17943764919765,22.43054225122225],[102.1453195998696,22.397776053810055],[102.04007096033595,22.45814981820582],[101.9079097078847,22.437195105637105],[101.8793343019493,22.384256884410885],[101.77433200212201,22.50621402309602],[101.67253211847712,22.474906472908472],[101.66982238170738,22.3654012007752],[101.54763788736288,22.23117007934608],[101.59647473414473,22.16108385903986],[101.60731368122367,21.96430879075879],[101.70129227919227,21.93880025270825],[101.77445517197518,21.831536316554317],[101.74729621935123,21.730000239014238],[101.82852673751674,21.617115174531175],[101.74581818111318,21.57605959167159],[101.77248445432446,21.513195453965455],[101.73029877961378,21.336948177114177],[101.83542424929425,21.20805356992157],[101.75610286385286,21.143303863851862],[101.66655838059839,21.19649112240912],[101.60035458451958,21.17322392033792],[101.60460394445394,21.2298977015297],[101.53267275020275,21.252382214846214],[101.2902128942379,21.178275820481822],[101.2256103062503,21.226162141564142],[101.24969001254502,21.296888743578744],[101.14290174984674,21.409169003115004],[101.18976787897788,21.41841896112496],[101.22548713639713,21.50191762054562],[101.20892079114579,21.557310638320637],[101.14000725829726,21.568944239356238],[101.1712924010024,21.59971813812014],[101.12011532701032,21.7746134980315],[100.88510724716224,21.684212946864946],[100.73059066636067,21.518709852009852],[100.578906992182,21.451896693768695],[100.48283450670951,21.459225506653507],[100.42876294116795,21.540091485717486],[100.24770325700825,21.46370817861218],[100.19948225949226,21.512768532826534],[100.1298297075247,21.505297412895413],[100.1082133982934,21.592816246374248],[100.16912089068589,21.664040923050923],[100.11899076044575,21.703495551639552],[100.03073956064956,21.674429337431338],[99.94421273879775,21.821325785981784],[99.99982392750393,21.972277985351987],[99.97241863517364,22.05296608060808],[99.87148094050094,22.06691217114617],[99.8430287044187,22.025429667147666],[99.75299154175154,22.069366967694968],[99.7041546949697,22.037419035799036],[99.64312403272403,22.102809123577124],[99.47191793681793,22.130914765222766],[99.26382246988747,22.100994708736707],[99.1562336031436,22.15987424914625],[99.20094425984426,22.16912420715621],[99.17483225097226,22.187054894990894],[99.27774066329566,22.344980139630138],[99.25156706949707,22.393471265659265],[99.38249662341661,22.494758305868306],[99.31481478909978,22.737107205729206],[99.46292653753653,22.844762486260485],[99.44266509669009,22.93302843173243],[99.53147056082557,22.897095902539903],[99.56330996786997,22.925628465324465],[99.51040851593352,23.074588366046367],[99.33181222883724,23.13350348321748],[99.25538533494533,23.07793258163458],[99.20069792013791,23.109168978298978],[99.10653456738956,23.08661331145931],[99.04845998161998,23.114718953104955],[99.05751296582797,23.164455265789265],[98.88538309602309,23.179326352128353],[98.93692967957467,23.31010652768453],[98.87281977099977,23.32985163035963],[98.92060967402968,23.35390152118552],[98.91254204864705,23.426335807755805],[98.80273612454613,23.530540142414143],[98.88562943572944,23.61361188069588],[98.79275936643937,23.77786978889579],[98.66885049415049,23.800745646589647],[98.7014905052405,23.83433010951811],[98.67322302393802,23.960663189877188],[98.85286625478625,24.057503134889135],[98.89997872362372,24.106954833480835],[98.88057947174947,24.149220026234026],[98.59377846864346,24.0805212996293],[98.54555747112747,24.128656658042658],[98.11045996480496,24.09272412885013],[97.90217974309473,24.01424179281179],[97.89577491072991,23.974573703653704],[97.82119556463556,23.96902372884773],[97.64894252497753,23.84101854069454],[97.5281128990179,23.927292187518187],[97.7544375042175,24.163415154103156],[97.7262931927682,24.199739027673026],[97.76564596085596,24.262176244240244],[97.66526253052253,24.29629435859236],[97.66230645404644,24.339093202769202],[97.71625484973485,24.36086618085418],[97.67714842135342,24.444329263513264],[97.53002203174204,24.441874466964467],[97.57504061307561,24.65604657165657],[97.54726581118581,24.73886927260727],[97.7021519015469,24.842753416411416],[97.79803963223964,24.846809167231168],[97.72943402402402,24.909353114083114],[97.7201347001097,25.080726374598374],[97.8373924003274,25.26981686237886],[97.94251787000786,25.215491147451147],[98.01173932748932,25.303401325307327],[98.06975232833233,25.311833017801018],[98.10294660376161,25.39209419191819],[98.14328473067474,25.383698076186075],[98.17062843807844,25.620319117433116],[98.3145524115074,25.543224275096275],[98.40212617711117,25.593992313866313],[98.52899112587613,25.84075273216273],[98.64076776762776,25.798843307025308],[98.70623254458755,25.856335353733353],[98.68122906439406,25.935066727102726],[98.61434783412284,25.968722343554344],[98.57530299066799,26.117895704845704],[98.6512372051472,26.142372516810518],[98.6651553985554,26.087015075797076],[98.72002756814257,26.127038932570933],[98.68110589454089,26.30801791871192],[98.7333914972115,26.350140804418803],[98.78111981531481,26.601063703819705],[98.73062017551517,26.85027891866492],[98.76621626308126,27.049437629971628],[98.71263737695237,27.075835587061587],[98.69200642654643,27.198682144786144],[98.74078168840168,27.32835944073344],[98.68707963241962,27.425199385745387],[98.70660205414706,27.554627644361645],[98.66460113421613,27.586717883303884],[98.58761997598498,27.56651028272828],[98.55879823034323,27.644352237058236],[98.52652772881272,27.61980427157027],[98.43858445364945,27.66548483343483],[98.42922354480854,27.548828632224634],[98.3174469030569,27.519584534208533],[98.30217384126384,27.628058080256082],[98.22069698339197,27.711627893199893],[98.2234683050883,27.811456286184285],[98.1728454954355,27.839668658114658],[98.18811855722856,27.938998976436977],[98.13817318176818,27.95927773053573],[98.1393432953733,28.142391322371324],[98.176479006104,28.212121775061775],[98.26614665921166,28.240974528700526],[98.20425380799381,28.3484875021855],[98.28258983460984,28.394452678142677],[98.3774922064772,28.249228337386334],[98.40009387453387,28.10471553186153],[98.55947566453567,28.182913253807254],[98.62654164958664,28.165516217396217],[98.71232945231945,28.229447657949656],[98.75359135313136,28.336925054673053],[98.67390045813046,28.478734026318026],[98.62444776208275,28.492359926001924],[98.59420956312957,28.669532198654196],[98.68369246145747,28.740294377430377],[98.62327764847765,28.965210664118665],[98.78573868480868,28.998830703808704],[98.84134987351487,28.80344312922913],[98.97067821934321,28.828738206710206],[98.91143351996851,28.9098887998668],[98.92609073249574,28.978480796186794],[99.01532729111729,29.042447813501813],[98.96199474469475,29.17411740809741],[99.11380158872659,29.221363347471346],[99.1043175100325,28.814222887986887],[99.18376206532706,28.588915256921254],[99.16516341749842,28.425226576906574],[99.30668557879058,28.227597666347666],[99.40238855470355,28.150716284580284],[99.39296606093606,28.31860302246102],[99.4373687930038,28.40203052835853],[99.40294281904282,28.54572506836707],[99.54076988473989,28.623531445935445],[99.53165531560532,28.679991766557766],[99.61473338156839,28.740258800668798],[99.62557232864732,28.814685385887387],[99.71782654867155,28.84627755016755],[99.73316119539119,28.71951754866955],[99.94864685351186,28.578135498163498],[99.99323434035934,28.472472516280515],[100.07477278315778,28.42529773042973],[100.05543511621012,28.370438364078364],[100.17651108187609,28.32479337897538],[100.16813553186053,28.220731351363348],[100.03332612756613,28.18462093836294],[100.02113231210231,28.147407645753646],[100.19190731352231,27.946470096368095],[100.16875138112638,27.896911667491665],[100.3087955041805,27.86087240801441],[100.32770207664208,27.720450930070932],[100.43251962168962,27.86514161940362],[100.54639015094514,27.808610145258143],[100.68070687582687,27.923523085151082],[100.70706522440523,27.801352485896487],[100.78921951646952,27.68416263326263],[100.84821787613788,27.67199538080338],[100.82789485036486,27.614610064380063],[100.91201986007985,27.521683563141565],[100.90130408285408,27.45337618091418],[100.93677700056699,27.469207839815837],[101.02003982130982,27.344795904581904],[101.04239514966015,27.221664732764733],[101.17043021203021,27.195622543290543],[101.1374206913807,27.022328137650135],[101.2644703949254,26.95551497940898],[101.2677343960344,26.903003679321678],[101.36540808959809,26.8836854977855],[101.38967255067254,26.723163149551148],[101.45710804528304,26.72974485044285],[101.46061838609839,26.78656093868094],[101.51333508325509,26.768594674084675],[101.39921821429321,26.5424332007412],[101.63675127613128,26.395038677528674],[101.66107732213231,26.309369835651836],[101.5974600929701,26.30346409323009],[101.59444243156743,26.26151909133109],[101.80814212681713,26.1596983996984],[101.83542424929425,26.045852762652764],[101.91757854135854,26.108005365127365],[102.10781437957938,26.068230545684543],[102.24798167248667,26.21516257099657],[102.55159536055037,26.36213017307017],[102.6294387077537,26.33687067235067],[102.6008633018183,26.250383564957566],[102.67451887401387,26.20537896156296],[102.88027411373412,26.36611477036677],[102.98749347091847,26.348504273386272],[102.9898336981287,26.47992483065083],[103.05646858869359,26.545706262806263],[102.97012652162152,26.832419384353386],[102.8966557042057,26.911399795053796],[102.88255275601776,27.29651823912224],[102.94881813702314,27.41271194243194],[102.985337998488,27.36738714818315],[103.14287224069224,27.421926323680324],[103.2218857015007,27.566332398920398],[103.29486383950385,27.56572759397359],[103.27965236263736,27.632754212784214],[103.48953379243879,27.797403465361462],[103.5029593064343,27.911782753830753],[103.56423630838631,27.976141115523113],[103.51558421638421,27.96553924057324],[103.48953379243879,28.031427403013403],[103.43250615042115,28.041282165970166],[103.45239808170808,28.123037564073563],[103.63241082211582,28.260008096144098],[103.71154745277745,28.19710838167638],[103.87480909315408,28.30618673267073],[103.78200060879061,28.524556895228894],[103.8510988964189,28.667077402105402],[103.95043538300038,28.60108250938051],[104.09614531930032,28.60346615240615],[104.24591986075487,28.663733186517184],[104.30812063660564,28.614921869633868],[104.3740780929781,28.6493245980786],[104.42531675189676,28.626697777715776],[104.3568343135343,28.55568656160856],[104.2482600879651,28.52836360871761],[104.25429541077041,28.403560329106327],[104.29660425533426,28.308143454557452],[104.37069092201592,28.337138515242515],[104.44933487326487,28.26996958938559],[104.40117546067546,28.197713186623186],[104.4574024986475,28.169394084408083],[104.45105925120924,28.116349132897135],[104.29808229357229,28.04533791678992],[104.50673202484202,27.878909826133825],[104.57687725622226,27.84070038420038],[104.87297758324259,27.905948164932163],[104.9771176940977,28.06109842216842],[105.05914881630882,28.098098254208253],[105.17708395071895,28.066861857543856],[105.18638327463327,27.995494873820874],[105.27155522810023,27.99663333019133],[105.28418013805015,27.93444515095515],[105.23269513942515,27.89292707019507],[105.24421152069652,27.82298315693516],[105.31595796016796,27.818251447645444],[105.27383387038387,27.795233282905283],[105.30838301419801,27.705152922592923],[105.18687595404596,27.368490027792028],[105.16575232422733,27.40975907122107],[105.07762429428429,27.42007633207833],[104.8712532052982,27.29089711079311],[104.80899084452085,27.354721821061823],[104.77967641946643,27.31772198902199],[104.75227112713613,27.345293979243976],[104.61130323018322,27.307013383787385],[104.54048056461056,27.326260411800412],[104.4970631913682,27.414490780510782],[104.35695748338748,27.46753573202173],[104.25429541077041,27.294134596096598],[104.17417342128343,27.263004929716928],[104.02095012394012,27.37585441743842],[104.01528431069431,27.429255136565136],[103.93245258443758,27.443948339096337],[103.86544818431318,27.281718306306306],[103.80232363456363,27.267309717867718],[103.70945356527356,27.13588916060316],[103.62779195262195,27.116926746682743],[103.65981611444612,27.065767363535365],[103.6014336040436,27.062174110616112],[103.61436643862643,27.005358022378022],[103.70514262041262,27.04911743911744],[103.77744332422333,26.945766946736946],[103.77941404187405,26.874186502444502],[103.7027408082758,26.813385816909815],[103.77171592605093,26.726507365139362],[103.76377147052148,26.58505416111016],[103.8207991125391,26.528629417249416],[104.05254319127819,26.507176630018627],[104.12860057561058,26.6439337015197],[104.34876668815168,26.61945688955489],[104.42131373166873,26.7120631999392],[104.46399208579209,26.59515796139796],[104.56449868597869,26.585836849864847],[104.66580589021089,26.434066384978387],[104.68311125458126,26.36746668730669],[104.5420201877752,26.253122975598977],[104.52138923736923,26.090501598431597],[104.4558012905563,26.077943001595003],[104.43092098021597,25.821612434434435],[104.37309273415273,25.73156765088365],[104.3274583035533,25.75906848758249],[104.30849014616514,25.660520858014856],[104.33146132378133,25.599791326003327],[104.428395998226,25.576061626031624],[104.43473924566425,25.47221305898906],[104.55606155103655,25.52515128021528],[104.53943362085862,25.404546058470057],[104.64579078907079,25.356802044434044],[104.63994022104522,25.295610014522012],[104.82777424712924,25.238260274860274],[104.8152725070325,25.156184685902687],[104.74740591793592,25.214103653749653],[104.68649842554342,25.076208125878125],[104.61659953386953,25.058775512705513],[104.68378868877369,25.05482649217049],[104.71371896309397,24.99719213841614],[104.53980313041814,24.813865086011084],[104.52945686275186,24.731398152676153],[104.45087449642949,24.63829376762977],[104.50500764689764,24.62836785114985],[104.57798578490079,24.42017264240264],[104.69512031526531,24.32276346920547],[104.70374220498721,24.421346675534675],[104.75559671317171,24.457528242058242],[105.10897102191602,24.412310178094177],[105.10878626713627,24.40565732367932],[105.19623686288686,24.337065327359326],[105.15959383156883,24.280071355313353],[105.24304140709141,24.20671207294207],[105.18188757499257,24.132854715908714],[105.25837605381105,24.061843499801498],[105.31940671605672,24.11677401967602],[105.49301462409963,24.01723024078424],[105.52885705137206,24.128229736903737],[105.62486795191795,24.129368193274193],[105.6279471982472,24.12709128053328],[105.64944033762534,24.033097476447477],[105.77261019079519,24.073299217029216],[105.7990917092267,24.023562904344903],[105.89879770536771,24.043414737304737],[105.91942865577366,24.12218168743569],[106.00767985556985,24.12488552131552],[106.19773093901094,23.87111648098848],[106.13688503154503,23.795409132353132],[106.14144231611232,23.56967458014858],[106.0679714986965,23.490551862401862],[105.99431592650092,23.447895325271325],[105.98624830111831,23.48959128983929],[105.85242425564925,23.526946889494887],[105.69987839249839,23.401432074652075],[105.63139595413595,23.402108033122033],[105.70061741161742,23.328392983134982],[105.59327488457988,23.312561324233325],[105.52762535284035,23.244467402575403],[105.54265207492708,23.184271521987522]]]},"bbox":[97.5281128990179,21.143303863851862,106.19773093901094,29.221363347471346],"id":24}]}